SENTINEL-6              
1 46984U 20086A   24262.53236856 -.00000066  00000+0 -22740-4 0  9993
2 46984  66.0442  17.3915 0007967 272.3512  87.6591 12.80927846178786
